NORAD_CAT_ID,OBJECT_NAME,OBJECT_TYPE,EPOCH,MEAN_MOTION,ECCENTRICITY,INCLINATION,RA_OF_ASC_NODE,ARG_OF_PERICENTER,MEAN_ANOMALY,BSTAR,MEAN_MOTION_DOT,MEAN_MOTION_DDOT,TLE_LINE0,TLE_LINE1,TLE_LINE2,SEMIMAJOR_AXIS,PERIOD,APOGEE,PERIGEE,DECAYED
53707.0,STARLINK-4667,PAYLOAD,2023-02-19 14:15:56,15.08833362,0.0001434,53.2159,190.5004,93.73,266.3856,0.00011466,1.537e-05,0.0,0 STARLINK-4667,1 53707U 22107H   23050.59440119  .00001537  00000-0  11466-3 0  9994,2 53707  53.2159 190.5004 0001434  93.7300 266.3856 15.08833362 26870,6917.901,95.438,540.758,538.774,0.0
53707.0,STARLINK-4667,PAYLOAD,2023-02-19 15:51:19,15.0883787,0.000145,53.216,190.2031,94.8412,265.2746,9.9958e-05,1.303e-05,0.0,0 STARLINK-4667,1 53707U 22107H   23050.66063934  .00001303  00000-0  99958-4 0  9992,2 53707  53.2160 190.2031 0001450  94.8412 265.2746 15.08837870 26136,6917.887,95.438,540.755,538.749,0.0
53707.0,STARLINK-4667,PAYLOAD,2023-02-19 20:37:28,15.0884509,0.0001416,53.2163,189.3101,99.3643,260.751,0.00013605,1.878e-05,0.0,0 STARLINK-4667,1 53707U 22107H   23050.85935292  .00001878  00000-0  13605-3 0  9999,2 53707  53.2163 189.3101 0001416  99.3643 260.7510 15.08845090 26169,6917.865,95.437,540.709,538.75,0.0
53707.0,STARLINK-4667,PAYLOAD,2023-02-20 14:06:43,15.08835426,0.0001283,53.2174,186.0394,97.8638,262.25,6.5307e-06,-1.84e-06,0.0,0 STARLINK-4667,1 53707U 22107H   23051.58800456 -.00000184  00000-0  65307-5 0  9991,2 53707  53.2174 186.0394 0001283  97.8638 262.2500 15.08835426 26278,6917.894,95.438,540.647,538.872,0.0
53707.0,STARLINK-4667,PAYLOAD,2023-02-20 20:28:14,15.08851378,0.0001021,53.2164,184.8516,82.1456,277.9652,0.00010348,1.36e-05,0.0,0 STARLINK-4667,1 53707U 22107H   23051.85295131  .00001360  00000-0  10348-3 0  9998,2 53707  53.2164 184.8516 0001021  82.1456 277.9652 15.08851378 26314,6917.846,95.437,540.417,539.004,0.0
53707.0,STARLINK-4667,PAYLOAD,2023-02-21 01:14:25,15.08831321,0.0001011,53.2176,183.9588,86.4212,273.6896,-0.0001046,-1.952e-05,0.0,0 STARLINK-4667,1 53707U 22107H   23052.05168947 -.00001952  00000-0 -10460-3 0  9999,2 53707  53.2176 183.9588 0001011  86.4212 273.6896 15.08831321 26344,6917.907,95.438,540.471,539.073,0.0
53707.0,STARLINK-4667,PAYLOAD,2023-02-21 12:22:07,15.08839504,0.0001095,53.2166,181.8751,89.5563,270.5554,-2.9199e-05,-7.52e-06,0.0,0 STARLINK-4667,1 53707U 22107H   23052.51536415 -.00000752  00000-0 -29199-4 0  9996,2 53707  53.2166 181.8751 0001095  89.5563 270.5554 15.08839504 27166,6917.882,95.438,540.504,538.989,0.0
53707.0,STARLINK-4667,PAYLOAD,2023-02-21 15:32:52,15.08846956,0.0001192,53.2174,181.2867,84.6102,275.5026,5.856e-05,6.44e-06,0.0,0 STARLINK-4667,1 53707U 22107H   23052.64783520  .00000644  00000-0  58560-4 0  9993,2 53707  53.2174 181.2867 0001192  84.6102 275.5026 15.08846956 26437,6917.859,95.437,540.549,538.9,0.0
53707.0,STARLINK-4667,PAYLOAD,2023-02-22 01:05:12,15.08830191,9.8e-05,53.2177,179.4982,92.3557,267.7547,-0.00018325,-3.202e-05,0.0,0 STARLINK-4667,1 53707U 22107H   23053.04528932 -.00003202  00000-0 -18325-3 0  9991,2 53707  53.2177 179.4982 0000980  92.3557 267.7547 15.08830191 26492,6917.91,95.438,540.453,539.097,0.0
53707.0,STARLINK-4667,PAYLOAD,2023-02-22 12:12:54,15.08841267,0.0001133,53.2172,177.4186,95.0089,265.1032,-8.4573e-05,-1.634e-05,0.0,0 STARLINK-4667,1 53707U 22107H   23053.50896333 -.00001634  00000-0 -84573-4 0  9991,2 53707  53.2172 177.4186 0001133  95.0089 265.1032 15.08841267 27311,6917.877,95.437,540.525,538.958,0.0
53707.0,STARLINK-4667,PAYLOAD,2023-02-23 12:03:41,15.08833139,0.0001086,53.2174,172.9571,96.5315,263.5801,-5.0762e-05,-1.095e-05,0.0,0 STARLINK-4667,1 53707U 22107H   23054.50256746 -.00001095  00000-0 -50762-4 0  9994,2 53707  53.2174 172.9571 0001086  96.5315 263.5801 15.08833139 27467,6917.901,95.438,540.518,539.015,0.0
53707.0,STARLINK-4667,PAYLOAD,2023-02-23 20:00:36,15.08854318,0.0001082,53.2175,171.4694,100.7646,259.3468,-4.4594e-05,-9.98e-06,0.0,0 STARLINK-4667,1 53707U 22107H   23054.83375347 -.00000998  00000-0 -44594-4 0  9996,2 53707  53.2175 171.4694 0001082 100.7646 259.3468 15.08854318 26765,6917.837,95.437,540.45,538.953,0.0
53707.0,STARLINK-4667,PAYLOAD,2023-02-24 00:46:46,15.08844286,7.66e-05,53.2172,170.5779,104.4716,255.6361,-0.00014202,-2.547e-05,0.0,0 STARLINK-4667,1 53707U 22107H   23055.03248161 -.00002547  00000-0 -14202-3 0  9996,2 53707  53.2172 170.5779 0000766 104.4716 255.6361 15.08844286 26790,6917.867,95.437,540.262,539.202,0.0
53707.0,STARLINK-4667,PAYLOAD,2023-02-24 11:54:28,15.08832458,0.0001343,53.2171,168.4984,102.1233,257.9909,7.218e-06,-1.73e-06,0.0,0 STARLINK-4667,1 53707U 22107H   23055.49616835 -.00000173  00000-0  72180-5 0  9996,2 53707  53.2171 168.4984 0001343 102.1233 257.9909 15.08832458 27617,6917.903,95.438,540.698,538.839,0.0
53707.0,STARLINK-4667,PAYLOAD,2023-02-24 16:40:37,15.08848759,0.0001077,53.2178,167.6037,107.5076,252.6034,3.9841e-05,3.46e-06,0.0,0 STARLINK-4667,1 53707U 22107H   23055.69487436  .00000346  00000-0  39841-4 0  9998,2 53707  53.2178 167.6037 0001077 107.5076 252.6034 15.08848759 26893,6917.854,95.437,540.464,538.974,0.0
53707.0,STARLINK-4667,PAYLOAD,2023-02-25 06:59:07,15.08821182,0.0001606,53.2182,164.9282,87.2951,272.8225,-5.2823e-06,-3.72e-06,0.0,0 STARLINK-4667,1 53707U 22107H   23056.29106053 -.00000372  00000-0 -52823-5 0  9995,2 53707  53.2182 164.9282 0001606  87.2951 272.8225 15.08821182 26981,6917.938,95.439,540.914,538.692,0.0
53707.0,STARLINK-4667,PAYLOAD,2023-02-25 13:20:40,15.08833113,0.0001281,53.2174,163.7414,94.6867,265.4272,-0.00011365,-2.096e-05,0.0,0 STARLINK-4667,1 53707U 22107H   23056.55601859 -.00002096  00000-0 -11365-3 0  9997,2 53707  53.2174 163.7414 0001281  94.6867 265.4272 15.08833113 27778,6917.901,95.438,540.653,538.88,0.0
53707.0,STARLINK-4667,PAYLOAD,2023-02-25 16:31:25,15.08840033,0.000133,53.2176,163.1453,86.7768,273.3376,-7.646e-05,-1.505e-05,0.0,0 STARLINK-4667,1 53707U 22107H   23056.68849341 -.00001505  00000-0 -76460-4 0  9993,2 53707  53.2176 163.1453 0001330  86.7768 273.3376 15.08840033 27046,6917.88,95.438,540.665,538.825,0.0
53707.0,STARLINK-4667,PAYLOAD,2023-02-26 10:00:39,15.08846935,0.0001194,53.2165,159.8748,89.4587,270.6542,0.00012578,1.715e-05,0.0,0 STARLINK-4667,1 53707U 22107H   23057.41712098  .00001715  00000-0  12578-3 0  9993,2 53707  53.2165 159.8748 0001194  89.4587 270.6542 15.08846935 27154,6917.859,95.437,540.55,538.898,0.0
53707.0,STARLINK-4667,PAYLOAD,2023-02-26 11:36:02,15.0884895,0.000125,53.217,159.5778,87.6972,272.4164,0.00014306,1.99e-05,0.0,0 STARLINK-4667,1 53707U 22107H   23057.48335906  .00001990  00000-0  14306-3 0  9995,2 53707  53.2170 159.5778 0001250  87.6972 272.4164 15.08848950 27914,6917.853,95.437,540.583,538.853,0.0
53707.0,STARLINK-4667,PAYLOAD,2023-02-26 16:22:10,15.08863601,0.0001396,53.2185,158.6849,106.1023,254.0123,0.00015837,2.235e-05,0.0,0 STARLINK-4667,1 53707U 22107H   23057.68206733  .00002235  00000-0  15837-3 0  9995,2 53707  53.2185 158.6849 0001396 106.1023 254.0123 15.08863601 27195,6917.808,95.436,540.639,538.708,0.0
53707.0,STARLINK-4667,PAYLOAD,2023-02-27 16:12:57,15.08858096,9.64e-05,53.2186,154.2227,115.1217,244.9875,0.00015899,2.245e-05,0.0,0 STARLINK-4667,1 53707U 22107H   23058.67567034  .00002245  00000-0  15899-3 0  9998,2 53707  53.2186 154.2227 0000964 115.1217 244.9875 15.08858096 27344,6917.825,95.436,540.357,539.023,0.0
53707.0,STARLINK-4667,PAYLOAD,2023-02-28 11:17:35,15.08868064,0.0002183,53.2177,150.6481,124.3796,235.7403,-0.00025474,-4.344e-05,0.0,0 STARLINK-4667,1 53707U 22107H   23059.47055268 -.00004344  00000-0 -25474-3 0  9992,2 53707  53.2177 150.6481 0002183 124.3796 235.7403 15.08868064 28213,6917.795,95.436,541.17,538.149,0.0
53707.0,STARLINK-4667,PAYLOAD,2023-02-28 14:28:23,15.08770467,0.0002444,53.2181,150.0527,128.7712,231.3499,0.00096273,0.00015038,0.0,0 STARLINK-4667,1 53707U 22107H   23059.60304671  .00015038  00000-0  96273-3 0  9997,2 53707  53.2181 150.0527 0002444 128.7712 231.3499 15.08770467 27483,6918.093,95.442,541.649,538.267,0.0
53707.0,STARLINK-4667,PAYLOAD,2023-02-28 22:25:19,15.0884069,0.0001892,53.2183,148.575,83.0204,277.1003,-0.00022727,-3.903e-05,0.0,0 STARLINK-4667,1 53707U 22107H   23059.93424844 -.00003903  00000-0 -22727-3 0  9991,2 53707  53.2183 148.5750 0001892  83.0204 277.1003 15.08840690 27531,6917.878,95.438,541.052,538.434,0.0
53707.0,STARLINK-4667,PAYLOAD,2023-03-01 11:08:26,15.08809584,0.0001389,53.2184,146.1991,111.331,248.783,-0.00030252,-5.095e-05,0.0,0 STARLINK-4667,1 53707U 22107H   23060.46419871 -.00005095  00000-0 -30252-3 0  9991,2 53707  53.2184 146.1991 0001389 111.3310 248.7830 15.08809584 27615,6917.973,95.439,540.799,538.877,0.0
53707.0,STARLINK-4667,PAYLOAD,2023-03-01 17:29:58,15.08818524,0.0001406,53.2176,145.0036,131.2569,228.8544,-0.00023071,-3.956e-05,0.0,0 STARLINK-4667,1 53707U 22107H   23060.72915324 -.00003956  00000-0 -23071-3 0  9999,2 53707  53.2176 145.0036 0001406 131.2569 228.8544 15.08818524 27650,6917.946,95.439,540.784,538.838,0.0
53707.0,STARLINK-4667,PAYLOAD,2023-03-01 22:16:06,15.08839975,0.0001107,53.2178,144.1122,113.361,246.7499,-3.3163e-05,-8.16e-06,0.0,0 STARLINK-4667,1 53707U 22107H   23060.92785468 -.00000816  00000-0 -33163-4 0  9991,2 53707  53.2178 144.1122 0001107 113.3610 246.7499 15.08839975 27688,6917.88,95.438,540.511,538.98,0.0
53707.0,STARLINK-4667,PAYLOAD,2023-03-02 14:09:55,15.08871638,0.0001324,53.2179,141.1426,108.2298,251.8838,0.00010739,1.423e-05,0.0,0 STARLINK-4667,1 53707U 22107H   23061.59022803  .00001423  00000-0  10739-3 0  9998,2 53707  53.2179 141.1426 0001324 108.2298 251.8838 15.08871638 28530,6917.784,95.436,540.565,538.733,0.0
53707.0,STARLINK-4667,PAYLOAD,2023-03-03 09:14:35,15.0882198,0.0001771,53.2188,137.5729,107.8738,252.2448,0.00026012,3.852e-05,0.0,0 STARLINK-4667,1 53707U 22107H   23062.38513583  .00003852  00000-0  26012-3 0  9995,2 53707  53.2188 137.5729 0001771 107.8738 252.2448 15.08821980 27902,6917.935,95.439,541.026,538.575,0.0
